{
  "type": "FeatureCollection",
  "features": [
    {
      "type": "Feature",
      "properties": {
        "norad_id": 40128,
        "name": "GSAT0201 (GALILEO 5)",
        "group": "gnss",
        "lat": -22.117112641062114,
        "lon": -99.30704739283524,
        "alt_km": 25762.039933952998,
        "timestamp": "2025-12-06T09:34:17.156597+00:00",
        "meta_object_name": "GSAT0201 (GALILEO 5)",
        "meta_object_id": "2014-050A",
        "meta_epoch": "2025-12-03T05:25:23.717280",
        "meta_mean_motion": 1.85519443,
        "meta_eccentricity": 0.16470313,
        "meta_inclination": 49.088,
        "meta_ra_of_asc_node": 281.4514,
        "meta_arg_of_pericenter": 171.9194,
        "meta_mean_anomaly": 191.1354,
        "meta_ephemeris_type": 0,
        "meta_classification_type": "U",
        "meta_norad_cat_id": 40128,
        "meta_element_set_no": 999,
        "meta_rev_at_epoch": 7468,
        "meta_bstar": 0,
        "meta_mean_motion_dot": -5.9e-07,
        "meta_mean_motion_ddot": 0,
        "tle_line1": "1 40128U 14050A   25337.22596895 -.00000059  00000+0  00000+0 0  9994",
        "tle_line2": "2 40128  49.0880 281.4514 1647031 171.9194 191.1354  1.85519443 74684"
      },
      "geometry": {
        "type": "Point",
        "coordinates": [
          -99.30704739283524,
          -22.117112641062114
        ]
      }
    },
    {
      "type": "Feature",
      "properties": {
        "norad_id": 40129,
        "name": "GSAT0202 (GALILEO 6)",
        "group": "gnss",
        "lat": 27.64924411050734,
        "lon": 73.41999265685835,
        "alt_km": 17449.779836227943,
        "timestamp": "2025-12-06T09:34:17.156608+00:00",
        "meta_object_name": "GSAT0202 (GALILEO 6)",
        "meta_object_id": "2014-050B",
        "meta_epoch": "2025-12-02T22:38:17.581056",
        "meta_mean_motion": 1.8552031,
        "meta_eccentricity": 0.1647571,
        "meta_inclination": 49.1042,
        "meta_ra_of_asc_node": 280.5465,
        "meta_arg_of_pericenter": 172.6616,
        "meta_mean_anomaly": 190.1192,
        "meta_ephemeris_type": 0,
        "meta_classification_type": "U",
        "meta_norad_cat_id": 40129,
        "meta_element_set_no": 999,
        "meta_rev_at_epoch": 7684,
        "meta_bstar": 0,
        "meta_mean_motion_dot": -5.9e-07,
        "meta_mean_motion_ddot": 0,
        "tle_line1": "1 40129U 14050B   25336.94325904 -.00000059  00000+0  00000+0 0  9994",
        "tle_line2": "2 40129  49.1042 280.5465 1647571 172.6616 190.1192  1.85520310 76841"
      },
      "geometry": {
        "type": "Point",
        "coordinates": [
          73.41999265685835,
          27.64924411050734
        ]
      }
    },
    {
      "type": "Feature",
      "properties": {
        "norad_id": 40269,
        "name": "IRNSS-1C",
        "group": "gnss",
        "lat": -2.9467070327012763,
        "lon": -58.27427946515734,
        "alt_km": 35854.777924915485,
        "timestamp": "2025-12-06T09:34:17.156620+00:00",
        "meta_object_name": "IRNSS-1C",
        "meta_object_id": "2014-061A",
        "meta_epoch": "2025-12-05T22:01:51.844224",
        "meta_mean_motion": 1.00268822,
        "meta_eccentricity": 0.0017832,
        "meta_inclination": 6.0235,
        "meta_ra_of_asc_node": 92.7587,
        "meta_arg_of_pericenter": 2.6252,
        "meta_mean_anomaly": 32.995,
        "meta_ephemeris_type": 0,
        "meta_classification_type": "U",
        "meta_norad_cat_id": 40269,
        "meta_element_set_no": 999,
        "meta_rev_at_epoch": 4075,
        "meta_bstar": 0,
        "meta_mean_motion_dot": -1.54e-06,
        "meta_mean_motion_ddot": 0,
        "tle_line1": "1 40269U 14061A   25339.91796116 -.00000154  00000+0  00000+0 0  9994",
        "tle_line2": "2 40269   6.0235  92.7587 0017832   2.6252  32.9950  1.00268822 40758"
      },
      "geometry": {
        "type": "Point",
        "coordinates": [
          -58.27427946515734,
          -2.9467070327012763
        ]
      }
    },
    {
      "type": "Feature",
      "properties": {
        "norad_id": 40294,
        "name": "GPS BIIF-8  (PRN 03)",
        "group": "gnss",
        "lat": -43.86852637617779,
        "lon": -0.457842963355934,
        "alt_km": 20279.85508520838,
        "timestamp": "2025-12-06T09:34:17.156631+00:00",
        "meta_object_name": "GPS BIIF-8  (PRN 03)",
        "meta_object_id": "2014-068A",
        "meta_epoch": "2025-12-03T11:38:05.638272",
        "meta_mean_motion": 2.00564094,
        "meta_eccentricity": 0.00608191,
        "meta_inclination": 56.851,
        "meta_ra_of_asc_node": 38.5042,
        "meta_arg_of_pericenter": 69.3788,
        "meta_mean_anomaly": 291.3251,
        "meta_ephemeris_type": 0,
        "meta_classification_type": "U",
        "meta_norad_cat_id": 40294,
        "meta_element_set_no": 999,
        "meta_rev_at_epoch": 8128,
        "meta_bstar": 0,
        "meta_mean_motion_dot": -6.5e-07,
        "meta_mean_motion_ddot": 0,
        "tle_line1": "1 40294U 14068A   25337.48478748 -.00000065  00000+0  00000+0 0  9998",
        "tle_line2": "2 40294  56.8510  38.5042 0060819  69.3788 291.3251  2.00564094 81285"
      },
      "geometry": {
        "type": "Point",
        "coordinates": [
          -0.457842963355934,
          -43.86852637617779
        ]
      }
    },
    {
      "type": "Feature",
      "properties": {
        "norad_id": 40315,
        "name": "COSMOS 2501 (702K)",
        "group": "gnss",
        "lat": -24.70822071379451,
        "lon": -176.15588309643294,
        "alt_km": 19164.707381148455,
        "timestamp": "2025-12-06T09:34:17.156642+00:00",
        "meta_object_name": "COSMOS 2501 (702K)",
        "meta_object_id": "2014-075A",
        "meta_epoch": "2025-12-04T02:08:01.213152",
        "meta_mean_motion": 2.13101298,
        "meta_eccentricity": 0.0020149,
        "meta_inclination": 63.6138,
        "meta_ra_of_asc_node": 197.1248,
        "meta_arg_of_pericenter": 204.6361,
        "meta_mean_anomaly": 155.363,
        "meta_ephemeris_type": 0,
        "meta_classification_type": "U",
        "meta_norad_cat_id": 40315,
        "meta_element_set_no": 999,
        "meta_rev_at_epoch": 8569,
        "meta_bstar": 0,
        "meta_mean_motion_dot": 1.03e-06,
        "meta_mean_motion_ddot": 0,
        "tle_line1": "1 40315U 14075A   25338.08890293  .00000103  00000+0  00000+0 0  9992",
        "tle_line2": "2 40315  63.6138 197.1248 0020149 204.6361 155.3630  2.13101298 85690"
      },
      "geometry": {
        "type": "Point",
        "coordinates": [
          -176.15588309643294,
          -24.70822071379451
        ]
      }
    },
    {
      "type": "Feature",
      "properties": {
        "norad_id": 40534,
        "name": "GPS BIIF-9  (PRN 26)",
        "group": "gnss",
        "lat": -24.44668559064856,
        "lon": 52.050574470541946,
        "alt_km": 20467.079826172383,
        "timestamp": "2025-12-06T09:34:17.156653+00:00",
        "meta_object_name": "GPS BIIF-9  (PRN 26)",
        "meta_object_id": "2015-013A",
        "meta_epoch": "2025-12-05T02:39:15.664608",
        "meta_mean_motion": 2.00562945,
        "meta_eccentricity": 0.01067231,
        "meta_inclination": 53.199,
        "meta_ra_of_asc_node": 212.2063,
        "meta_arg_of_pericenter": 38.2939,
        "meta_mean_anomaly": 322.5584,
        "meta_ephemeris_type": 0,
        "meta_classification_type": "U",
        "meta_norad_cat_id": 40534,
        "meta_element_set_no": 999,
        "meta_rev_at_epoch": 7793,
        "meta_bstar": 0,
        "meta_mean_motion_dot": 6.7e-07,
        "meta_mean_motion_ddot": 0,
        "tle_line1": "1 40534U 15013A   25339.11059797  .00000067  00000+0  00000+0 0  9998",
        "tle_line2": "2 40534  53.1990 212.2063 0106723  38.2939 322.5584  2.00562945 77932"
      },
      "geometry": {
        "type": "Point",
        "coordinates": [
          52.050574470541946,
          -24.44668559064856
        ]
      }
    },
    {
      "type": "Feature",
      "properties": {
        "norad_id": 40544,
        "name": "GSAT0203 (GALILEO 7)",
        "group": "gnss",
        "lat": 53.707574398589266,
        "lon": 103.95294374302718,
        "alt_km": 23234.338525040093,
        "timestamp": "2025-12-06T09:34:17.156663+00:00",
        "meta_object_name": "GSAT0203 (GALILEO 7)",
        "meta_object_id": "2015-017A",
        "meta_epoch": "2025-12-05T01:16:54.709536",
        "meta_mean_motion": 1.70475832,
        "meta_eccentricity": 0.00065103,
        "meta_inclination": 56.8481,
        "meta_ra_of_asc_node": 346.8898,
        "meta_arg_of_pericenter": 269.6279,
        "meta_mean_anomaly": 90.3257,
        "meta_ephemeris_type": 0,
        "meta_classification_type": "U",
        "meta_norad_cat_id": 40544,
        "meta_element_set_no": 999,
        "meta_rev_at_epoch": 6589,
        "meta_bstar": 0,
        "meta_mean_motion_dot": -7.5e-07,
        "meta_mean_motion_ddot": 0,
        "tle_line1": "1 40544U 15017A   25339.05341099 -.00000075  00000+0  00000+0 0  9995",
        "tle_line2": "2 40544  56.8481 346.8898 0006510 269.6279  90.3257  1.70475832 65891"
      },
      "geometry": {
        "type": "Point",
        "coordinates": [
          103.95294374302718,
          53.707574398589266
        ]
      }
    }
  ]
}